TWILIGHT H              
1 67370U 26004H   26026.81861492  .00009161  00000+0  10197-2 0  9996
2 67370  97.7953  27.7176 0005522 246.0675 113.9963 14.87322409  2272
TWILIGHT J              
1 67371U 26004J   26026.81523646  .00010098  00000+0  11130-2 0  9992
2 67371  97.7995  27.7242 0004658 227.5086 132.5737 14.87700256  2278
TWILIGHT K              
1 67372U 26004K   26026.81196528  .00003944  00000+0  43621-3 0  9991
2 67372  97.7971  27.7263 0003061 220.3131 139.7859 14.87941026  2271
TWILIGHT L              
1 67373U 26004L   26026.81597180  .00003889  00000+0  43431-3 0  9998
2 67373  97.7986  27.7226 0004641 233.5635 126.5154 14.87546797  2275
TWILIGHT M              
1 67374U 26004M   26026.81269905  .00004371  00000+0  48330-3 0  9990
2 67374  97.7971  27.7241 0003325 221.4130 138.6835 14.87892154  2272
TWILIGHT N              
1 67375U 26004N   26026.81242573  .00004817  00000+0  53165-3 0  9990
2 67375  97.8007  27.7299 0003907 215.5293 144.5663 14.87918955  2270
TWILIGHT P              
1 67376U 26004P   26026.81390784  .00004765  00000+0  52780-3 0  9993
2 67376  97.8004  27.7271 0004256 222.4185 137.6703 14.87771067  2272
TWILIGHT Q              
1 67377U 26004Q   26026.81237814 -.00192253  00000+0 -21800-1 0  9997
2 67377  97.8007  27.7297 0002083 272.9098  87.1880 14.87514962  2266
TWILIGHT R              
1 67378U 26004R   26026.81467195  .00004729  00000+0  52488-3 0  9991
2 67378  97.7978  27.7226 0003669 233.2389 126.8491 14.87693904  2262
TWILIGHT S              
1 67379U 26004S   26026.81454771  .00004884  00000+0  54178-3 0  9998
2 67379  97.7982  27.7242 0004182 228.8973 131.1883 14.87705209  2262
TWILIGHT T              
1 67380U 26004T   26026.81365273  .00004822  00000+0  53368-3 0  9990
2 67380  97.7975  27.7243 0003687 227.8711 132.2192 14.87802328  2260
TWILIGHT U              
1 67381U 26004U   26025.33286567 -.00107252  00000+0 -11967-1 0  9995
2 67381  97.8011  26.2763 0001595 197.3365 162.7797 14.87665561  2047
