CCSDS_OMM_VERS = 2.0
CREATION_DATE  = 
ORIGINATOR     = 

OBJECT_NAME    = TWILIGHT H
OBJECT_ID      = 2026-004H
CENTER_NAME    = EARTH
REF_FRAME      = TEME
TIME_SYSTEM    = UTC
MEAN_ELEMENT_THEORY = SGP/SGP4

EPOCH          = 2026-01-26T19:38:48.329088
MEAN_MOTION    = 14.87322409
ECCENTRICITY   = .0005522
INCLINATION    = 97.7953
RA_OF_ASC_NODE = 27.7176
ARG_OF_PERICENTER = 246.0675
MEAN_ANOMALY   = 113.9963

EPHEMERIS_TYPE = 0
CLASSIFICATION_TYPE = U
NORAD_CAT_ID   = 67370
ELEMENT_SET_NO = 999
REV_AT_EPOCH   = 227
BSTAR          = .10197E-2
MEAN_MOTION_DOT = .9161E-4
MEAN_MOTION_DDOT = 0

CCSDS_OMM_VERS = 2.0
CREATION_DATE  = 
ORIGINATOR     = 

OBJECT_NAME    = TWILIGHT J
OBJECT_ID      = 2026-004J
CENTER_NAME    = EARTH
REF_FRAME      = TEME
TIME_SYSTEM    = UTC
MEAN_ELEMENT_THEORY = SGP/SGP4

EPOCH          = 2026-01-26T19:33:56.430144
MEAN_MOTION    = 14.87700256
ECCENTRICITY   = .0004658
INCLINATION    = 97.7995
RA_OF_ASC_NODE = 27.7242
ARG_OF_PERICENTER = 227.5086
MEAN_ANOMALY   = 132.5737

EPHEMERIS_TYPE = 0
CLASSIFICATION_TYPE = U
NORAD_CAT_ID   = 67371
ELEMENT_SET_NO = 999
REV_AT_EPOCH   = 227
BSTAR          = .1113E-2
MEAN_MOTION_DOT = .10098E-3
MEAN_MOTION_DDOT = 0

CCSDS_OMM_VERS = 2.0
CREATION_DATE  = 
ORIGINATOR     = 

OBJECT_NAME    = TWILIGHT K
OBJECT_ID      = 2026-004K
CENTER_NAME    = EARTH
REF_FRAME      = TEME
TIME_SYSTEM    = UTC
MEAN_ELEMENT_THEORY = SGP/SGP4

EPOCH          = 2026-01-26T19:29:13.800192
MEAN_MOTION    = 14.87941026
ECCENTRICITY   = .0003061
INCLINATION    = 97.7971
RA_OF_ASC_NODE = 27.7263
ARG_OF_PERICENTER = 220.3131
MEAN_ANOMALY   = 139.7859

EPHEMERIS_TYPE = 0
CLASSIFICATION_TYPE = U
NORAD_CAT_ID   = 67372
ELEMENT_SET_NO = 999
REV_AT_EPOCH   = 227
BSTAR          = .43621E-3
MEAN_MOTION_DOT = .3944E-4
MEAN_MOTION_DDOT = 0

CCSDS_OMM_VERS = 2.0
CREATION_DATE  = 
ORIGINATOR     = 

OBJECT_NAME    = TWILIGHT L
OBJECT_ID      = 2026-004L
CENTER_NAME    = EARTH
REF_FRAME      = TEME
TIME_SYSTEM    = UTC
MEAN_ELEMENT_THEORY = SGP/SGP4

EPOCH          = 2026-01-26T19:34:59.963520
MEAN_MOTION    = 14.87546797
ECCENTRICITY   = .0004641
INCLINATION    = 97.7986
RA_OF_ASC_NODE = 27.7226
ARG_OF_PERICENTER = 233.5635
MEAN_ANOMALY   = 126.5154

EPHEMERIS_TYPE = 0
CLASSIFICATION_TYPE = U
NORAD_CAT_ID   = 67373
ELEMENT_SET_NO = 999
REV_AT_EPOCH   = 227
BSTAR          = .43431E-3
MEAN_MOTION_DOT = .3889E-4
MEAN_MOTION_DDOT = 0

CCSDS_OMM_VERS = 2.0
CREATION_DATE  = 
ORIGINATOR     = 

OBJECT_NAME    = TWILIGHT M
OBJECT_ID      = 2026-004M
CENTER_NAME    = EARTH
REF_FRAME      = TEME
TIME_SYSTEM    = UTC
MEAN_ELEMENT_THEORY = SGP/SGP4

EPOCH          = 2026-01-26T19:30:17.197920
MEAN_MOTION    = 14.87892154
ECCENTRICITY   = .0003325
INCLINATION    = 97.7971
RA_OF_ASC_NODE = 27.7241
ARG_OF_PERICENTER = 221.4130
MEAN_ANOMALY   = 138.6835

EPHEMERIS_TYPE = 0
CLASSIFICATION_TYPE = U
NORAD_CAT_ID   = 67374
ELEMENT_SET_NO = 999
REV_AT_EPOCH   = 227
BSTAR          = .4833E-3
MEAN_MOTION_DOT = .4371E-4
MEAN_MOTION_DDOT = 0

CCSDS_OMM_VERS = 2.0
CREATION_DATE  = 
ORIGINATOR     = 

OBJECT_NAME    = TWILIGHT N
OBJECT_ID      = 2026-004N
CENTER_NAME    = EARTH
REF_FRAME      = TEME
TIME_SYSTEM    = UTC
MEAN_ELEMENT_THEORY = SGP/SGP4

EPOCH          = 2026-01-26T19:29:53.583072
MEAN_MOTION    = 14.87918955
ECCENTRICITY   = .0003907
INCLINATION    = 97.8007
RA_OF_ASC_NODE = 27.7299
ARG_OF_PERICENTER = 215.5293
MEAN_ANOMALY   = 144.5663

EPHEMERIS_TYPE = 0
CLASSIFICATION_TYPE = U
NORAD_CAT_ID   = 67375
ELEMENT_SET_NO = 999
REV_AT_EPOCH   = 227
BSTAR          = .53165E-3
MEAN_MOTION_DOT = .4817E-4
MEAN_MOTION_DDOT = 0

CCSDS_OMM_VERS = 2.0
CREATION_DATE  = 
ORIGINATOR     = 

OBJECT_NAME    = TWILIGHT P
OBJECT_ID      = 2026-004P
CENTER_NAME    = EARTH
REF_FRAME      = TEME
TIME_SYSTEM    = UTC
MEAN_ELEMENT_THEORY = SGP/SGP4

EPOCH          = 2026-01-26T19:32:01.637376
MEAN_MOTION    = 14.87771067
ECCENTRICITY   = .0004256
INCLINATION    = 97.8004
RA_OF_ASC_NODE = 27.7271
ARG_OF_PERICENTER = 222.4185
MEAN_ANOMALY   = 137.6703

EPHEMERIS_TYPE = 0
CLASSIFICATION_TYPE = U
NORAD_CAT_ID   = 67376
ELEMENT_SET_NO = 999
REV_AT_EPOCH   = 227
BSTAR          = .5278E-3
MEAN_MOTION_DOT = .4765E-4
MEAN_MOTION_DDOT = 0

CCSDS_OMM_VERS = 2.0
CREATION_DATE  = 
ORIGINATOR     = 

OBJECT_NAME    = TWILIGHT Q
OBJECT_ID      = 2026-004Q
CENTER_NAME    = EARTH
REF_FRAME      = TEME
TIME_SYSTEM    = UTC
MEAN_ELEMENT_THEORY = SGP/SGP4

EPOCH          = 2026-01-26T19:29:49.471296
MEAN_MOTION    = 14.87514962
ECCENTRICITY   = .0002083
INCLINATION    = 97.8007
RA_OF_ASC_NODE = 27.7297
ARG_OF_PERICENTER = 272.9098
MEAN_ANOMALY   = 87.1880

EPHEMERIS_TYPE = 0
CLASSIFICATION_TYPE = U
NORAD_CAT_ID   = 67377
ELEMENT_SET_NO = 999
REV_AT_EPOCH   = 226
BSTAR          = -.218E-1
MEAN_MOTION_DOT = -.192253E-2
MEAN_MOTION_DDOT = 0

CCSDS_OMM_VERS = 2.0
CREATION_DATE  = 
ORIGINATOR     = 

OBJECT_NAME    = TWILIGHT R
OBJECT_ID      = 2026-004R
CENTER_NAME    = EARTH
REF_FRAME      = TEME
TIME_SYSTEM    = UTC
MEAN_ELEMENT_THEORY = SGP/SGP4

EPOCH          = 2026-01-26T19:33:07.656480
MEAN_MOTION    = 14.87693904
ECCENTRICITY   = .0003669
INCLINATION    = 97.7978
RA_OF_ASC_NODE = 27.7226
ARG_OF_PERICENTER = 233.2389
MEAN_ANOMALY   = 126.8491

EPHEMERIS_TYPE = 0
CLASSIFICATION_TYPE = U
NORAD_CAT_ID   = 67378
ELEMENT_SET_NO = 999
REV_AT_EPOCH   = 226
BSTAR          = .52488E-3
MEAN_MOTION_DOT = .4729E-4
MEAN_MOTION_DDOT = 0

CCSDS_OMM_VERS = 2.0
CREATION_DATE  = 
ORIGINATOR     = 

OBJECT_NAME    = TWILIGHT S
OBJECT_ID      = 2026-004S
CENTER_NAME    = EARTH
REF_FRAME      = TEME
TIME_SYSTEM    = UTC
MEAN_ELEMENT_THEORY = SGP/SGP4

EPOCH          = 2026-01-26T19:32:56.922144
MEAN_MOTION    = 14.87705209
ECCENTRICITY   = .0004182
INCLINATION    = 97.7982
RA_OF_ASC_NODE = 27.7242
ARG_OF_PERICENTER = 228.8973
MEAN_ANOMALY   = 131.1883

EPHEMERIS_TYPE = 0
CLASSIFICATION_TYPE = U
NORAD_CAT_ID   = 67379
ELEMENT_SET_NO = 999
REV_AT_EPOCH   = 226
BSTAR          = .54178E-3
MEAN_MOTION_DOT = .4884E-4
MEAN_MOTION_DDOT = 0

CCSDS_OMM_VERS = 2.0
CREATION_DATE  = 
ORIGINATOR     = 

OBJECT_NAME    = TWILIGHT T
OBJECT_ID      = 2026-004T
CENTER_NAME    = EARTH
REF_FRAME      = TEME
TIME_SYSTEM    = UTC
MEAN_ELEMENT_THEORY = SGP/SGP4

EPOCH          = 2026-01-26T19:31:39.595872
MEAN_MOTION    = 14.87802328
ECCENTRICITY   = .0003687
INCLINATION    = 97.7975
RA_OF_ASC_NODE = 27.7243
ARG_OF_PERICENTER = 227.8711
MEAN_ANOMALY   = 132.2192

EPHEMERIS_TYPE = 0
CLASSIFICATION_TYPE = U
NORAD_CAT_ID   = 67380
ELEMENT_SET_NO = 999
REV_AT_EPOCH   = 226
BSTAR          = .53368E-3
MEAN_MOTION_DOT = .4822E-4
MEAN_MOTION_DDOT = 0

CCSDS_OMM_VERS = 2.0
CREATION_DATE  = 
ORIGINATOR     = 

OBJECT_NAME    = TWILIGHT U
OBJECT_ID      = 2026-004U
CENTER_NAME    = EARTH
REF_FRAME      = TEME
TIME_SYSTEM    = UTC
MEAN_ELEMENT_THEORY = SGP/SGP4

EPOCH          = 2026-01-25T07:59:19.593888
MEAN_MOTION    = 14.87665561
ECCENTRICITY   = .00015957
INCLINATION    = 97.8011
RA_OF_ASC_NODE = 26.2763
ARG_OF_PERICENTER = 197.3365
MEAN_ANOMALY   = 162.7797

EPHEMERIS_TYPE = 0
CLASSIFICATION_TYPE = U
NORAD_CAT_ID   = 67381
ELEMENT_SET_NO = 999
REV_AT_EPOCH   = 204
BSTAR          = -.11966576E-1
MEAN_MOTION_DOT = -.107252E-2
MEAN_MOTION_DDOT = 0

